{
  "66182": {
    "noradId": "66182",
    "tle": [
      "1 66182C 25243F   25341.77687500  .00011903  00000+0  40118-3 0  3415",
      "2 66182  53.1600 312.4021 0001239  88.5840  81.6901 15.30178296    19"
    ]
  },
  "66183": {
    "noradId": "66183",
    "tle": [
      "1 66183C 25243G   25341.78034722  .00003315  00000+0  11175-3 0  3418",
      "2 66183  53.1593 312.4207 0001426  80.5296  91.4448 15.30182746    12"
    ]
  },
  "66184": {
    "noradId": "66184",
    "tle": [
      "1 66184C 25243H   25341.77548611  .00001309  00000+0  44115-4 0  3417",
      "2 66184  53.1603 312.3072 0001278  91.4130 123.5473 15.30190354    16"
    ]
  },
  "66185": {
    "noradId": "66185",
    "tle": [
      "1 66185C 25243J   25341.78034722  .00005064  00000+0  17068-3 0  3410",
      "2 66185  53.1595 312.4005 0001290  92.1001  91.4882 15.30185686    12"
    ]
  },
  "66186": {
    "noradId": "66186",
    "tle": [
      "1 66186C 25243K   25341.77965278  .00005632  00000+0  18996-3 0  3411",
      "2 66186  53.1598 312.3580 0001090 100.0536 103.0474 15.30160211    17"
    ]
  },
  "66187": {
    "noradId": "66187",
    "tle": [
      "1 66187C 25243L   25341.77409722  .00000744  00000+0  25065-4 0  3414",
      "2 66187  53.1592 312.4649 0001164  88.5427  43.1524 15.30189352    17"
    ]
  },
  "66188": {
    "noradId": "66188",
    "tle": [
      "1 66188C 25243M   25341.77479167 -.00003420  00000+0 -11526-3 0  3417",
      "2 66188  53.1604 312.2755 0001247  87.5097 141.0671 15.30196263    12"
    ]
  },
  "66189": {
    "noradId": "66189",
    "tle": [
      "1 66189C 25243N   25341.78173611 -.00008173  00000+0 -27547-3 0  3414",
      "2 66189  53.1608 312.1732 0001521  88.9080 212.8464 15.30199320    17"
    ]
  },
  "66190": {
    "noradId": "66190",
    "tle": [
      "1 66190C 25243P   25341.78173611 -.00003768  00000+0 -12700-3 0  3416",
      "2 66190  53.1606 312.3126 0001616  87.0976 144.8579 15.30195746    14"
    ]
  },
  "66191": {
    "noradId": "66191",
    "tle": [
      "1 66191C 25243Q   25341.77409722  .00002819  00000+0  95019-4 0  3410",
      "2 66191  53.1592 312.4852 0001454  88.9945  31.0705 15.30186520    10"
    ]
  },
  "66192": {
    "noradId": "66192",
    "tle": [
      "1 66192C 25243R   25341.77479167 -.00000765  00000+0 -25788-4 0  3417",
      "2 66192  53.1593 312.5168 0001371  88.9560  17.4772 15.30194808    14"
    ]
  },
  "66193": {
    "noradId": "66193",
    "tle": [
      "1 66193C 25243S   25341.77618056  .00002761  00000+0  93055-4 0  3418",
      "2 66193  53.1612 312.0599 0001273  84.8404 256.0992 15.30187402    10"
    ]
  },
  "66194": {
    "noradId": "66194",
    "tle": [
      "1 66194C 25243T   25341.77895833 -.00004455  00000+0 -15014-3 0  3411",
      "2 66194  53.1612 312.0817 0001237  86.1719 252.6097 15.30198892    11"
    ]
  },
  "66195": {
    "noradId": "66195",
    "tle": [
      "1 66195C 25243U   25341.77826389  .00002628  00000+0  88580-4 0  3419",
      "2 66195  53.1610 312.1193 0001351  94.0306 223.4974 15.30183716    14"
    ]
  },
  "66196": {
    "noradId": "66196",
    "tle": [
      "1 66196C 25243V   25341.77479167 -.00004271  00000+0 -14396-3 0  3419",
      "2 66196  53.1610 312.1708 0001281  91.2975 189.6444 15.30192360    10"
    ]
  },
  "66197": {
    "noradId": "66197",
    "tle": [
      "1 66197C 25243X   25341.77895833 -.00004997  00000+0 -16840-3 0  3413",
      "2 66197  53.1606 312.2209 0001310  89.0137 179.9854 15.30196554    17"
    ]
  },
  "66198": {
    "noradId": "66198",
    "tle": [
      "1 66198C 25243W   25341.77479167  .00001781  00000+0  60041-4 0  3411",
      "2 66198  53.1600 312.5477 0001276  90.3457 358.6499 15.30188858    12"
    ]
  },
  "66199": {
    "noradId": "66199",
    "tle": [
      "1 66199C 25243Y   25341.78034722 -.00009378  00000+0 -30796-3 0  3412",
      "2 66199  53.1609 312.0333 0001371  86.9713 278.7829 15.31040185    10"
    ]
  },
  "66200": {
    "noradId": "66200",
    "tle": [
      "1 66200C 25243Z   25341.77756944  .00012521  00000+0  42211-3 0  3418",
      "2 66200  53.1612 312.0729 0001302  92.3625 244.6118 15.30171368    13"
    ]
  },
  "66201": {
    "noradId": "66201",
    "tle": [
      "1 66201C 25243AA  25341.77548611  .00002491  00000+0  83954-4 0  3414",
      "2 66201  53.1611 312.1166 0001327  85.2087 222.8078 15.30192709    14"
    ]
  },
  "66202": {
    "noradId": "66202",
    "tle": [
      "1 66202C 25243AB  25341.77687500 -.00003907  00000+0 -13169-3 0  3411",
      "2 66202  53.1609 312.1452 0001313  86.1988 212.0396 15.30192033    19"
    ]
  },
  "66203": {
    "noradId": "66203",
    "tle": [
      "1 66203C 25243AC  25341.77618056  .00001540  00000+0  51915-4 0  3413",
      "2 66203  53.1609 312.1837 0001350  95.2172 181.7404 15.30187203    19"
    ]
  },
  "66204": {
    "noradId": "66204",
    "tle": [
      "1 66204C 25243AD  25341.78034722  .00031945  00000+0  10782-2 0  3414",
      "2 66204  53.1606 312.2336 0001253  82.9672 182.2133 15.30112475    16"
    ]
  },
  "66206": {
    "noradId": "66206",
    "tle": [
      "1 66206C 25244A   25341.78034722  .00005555  00000+0  13860-3 0  3416",
      "2 66206  53.1613 299.5492 0001250  84.8489 123.1079 15.39611836    17"
    ]
  },
  "66207": {
    "noradId": "66207",
    "tle": [
      "1 66207C 25244B   25341.77618056  .00004908  00000+0  16541-3 0  3414",
      "2 66207  53.1596 297.1907 0001329 101.6318 181.3560 15.30185347    14"
    ]
  },
  "66208": {
    "noradId": "66208",
    "tle": [
      "1 66208C 25244C   25341.77479167  .00029410  00000+0  73391-3 0  3414",
      "2 66208  53.1615 299.5713 0001163  94.3305  84.6575 15.39585089    15"
    ]
  },
  "66209": {
    "noradId": "66209",
    "tle": [
      "1 66209C 25244D   25341.78034722  .00007865  00000+0  19624-3 0  3419",
      "2 66209  53.1614 299.4927 0001410  83.2781 152.2673 15.39608993    12"
    ]
  },
  "66210": {
    "noradId": "66210",
    "tle": [
      "1 66210C 25244E   25341.77340278  .00007244  00000+0  18078-3 0  3419",
      "2 66210  53.1612 299.5296 0001087  91.5224 103.6938 15.39604716    19"
    ]
  },
  "66211": {
    "noradId": "66211",
    "tle": [
      "1 66211C 25244F   25341.78034722  .00005462  00000+0  13629-3 0  3412",
      "2 66211  53.1612 299.4452 0001293  81.7829 177.6950 15.39608243    18"
    ]
  },
  "66212": {
    "noradId": "66212",
    "tle": [
      "1 66212C 25244G   25341.77479167  .00018369  00000+0  45825-3 0  3411",
      "2 66212  53.1610 299.4197 0001211  95.4610 158.9229 15.39604682    17"
    ]
  },
  "66213": {
    "noradId": "66213",
    "tle": [
      "1 66213C 25244H   25341.77965278  .00006341  00000+0  15824-3 0  3418",
      "2 66213  53.1611 299.4450 0001266  83.4848 173.9717 15.39608185    12"
    ]
  },
  "66214": {
    "noradId": "66214",
    "tle": [
      "1 66214C 25244J   25341.77618056  .00011166  00000+0  27864-3 0  3416",
      "2 66214  53.1605 299.3098 0001230  90.3525 223.2785 15.39601932    10"
    ]
  },
  "66215": {
    "noradId": "66215",
    "tle": [
      "1 66215C 25244K   25341.77548611 -.00076763  00000+0 -19164-2 0  3415",
      "2 66215  53.1604 299.2611 0001104  90.4594 245.1533 15.39677462    12"
    ]
  },
  "66216": {
    "noradId": "66216",
    "tle": [
      "1 66216C 25244L   25341.77618056  .00009606  00000+0  23971-3 0  3419",
      "2 66216  53.1611 299.4098 0001190  92.1505 171.8081 15.39602982    16"
    ]
  },
  "66217": {
    "noradId": "66217",
    "tle": [
      "1 66217C 25244M   25341.77756944 -.00000381  00000+0 -94958-5 0  3417",
      "2 66217  53.1609 299.3557 0001159  88.4486 207.1265 15.39616558    15"
    ]
  },
  "66218": {
    "noradId": "66218",
    "tle": [
      "1 66218C 25244N   25341.77409722 -.00001060  00000+0 -26442-4 0  3414",
      "2 66218  53.1608 299.3680 0001564  95.4364 182.7063 15.39616766    10"
    ]
  },
  "66219": {
    "noradId": "66219",
    "tle": [
      "1 66219C 25244P   25341.77965278  .00001745  00000+0  43526-4 0  3418",
      "2 66219  53.1605 299.2903 0001196  86.7526 247.9472 15.39617819    17"
    ]
  },
  "66220": {
    "noradId": "66220",
    "tle": [
      "1 66220C 25244Q   25341.77340278  .00094579  00000+0  23605-2 0  3418",
      "2 66220  53.1604 299.2680 0001445  70.1700 255.6028 15.39515314    18"
    ]
  },
  "66221": {
    "noradId": "66221",
    "tle": [
      "1 66221C 25244R   25341.77618056  .00016160  00000+0  40340-3 0  3417",
      "2 66221  53.1606 299.2029 0000995  71.2993 295.7009 15.39588133    16"
    ]
  },
  "66222": {
    "noradId": "66222",
    "tle": [
      "1 66222C 25244S   25341.77756944 -.00006478  00000+0 -16166-3 0  3419",
      "2 66222  53.1609 299.1451 0001046  92.6840 307.7117 15.39622137    11"
    ]
  },
  "66223": {
    "noradId": "66223",
    "tle": [
      "1 66223C 25244T   25341.77687500  .00006048  00000+0  15093-3 0  3410",
      "2 66223  53.1610 299.1529 0001216  84.1524 310.5776 15.39606858    19"
    ]
  },
  "66224": {
    "noradId": "66224",
    "tle": [
      "1 66224C 25244U   25341.77548611  .00000899  00000+0  22422-4 0  3413",
      "2 66224  53.1612 299.1039 0001256  90.8063 323.7987 15.39616297    12"
    ]
  },
  "66225": {
    "noradId": "66225",
    "tle": [
      "1 66225C 25244V   25341.77618056 -.00041368  00000+0 -10314-2 0  3418",
      "2 66225  53.1612 299.1036 0001256  92.1374 324.4236 15.39681697    11"
    ]
  },
  "66226": {
    "noradId": "66226",
    "tle": [
      "1 66226C 25244W   25341.77618056  .00009682  00000+0  24181-3 0  3418",
      "2 66226  53.1612 299.0517 0001207  81.8963   0.5654 15.39579866    10"
    ]
  },
  "66227": {
    "noradId": "66227",
    "tle": [
      "1 66227C 25244X   25341.77618056 -.00001062  00000+0 -26502-4 0  3415",
      "2 66227  53.1612 299.0473 0001220  83.7641   0.4382 15.39619543    15"
    ]
  }
}